{"type": "FeatureCollection", "features": [{"type": "Feature", "geometry": {"type": "Point", "coordinates": [72.56203, 23.06701]}, "properties": {"rid": "R002", "reported_as": "Juna Vadaj BRTS", "kind": "brts_station", "osm_query": "Juna Vadaj", "precision": "point", "time_ist": "2026-07-23 11:50", "source_file": "deshgujarat_2026-07-23_15-locations.html", "source_url": "https://deshgujarat.com/2026/07/23/waterlogging-reported-at-these-15-locations-across-ahmedabad/", "note": "AMC list: waterlogging at BRTS station", "near": "", "match": "JUNA VADAJ", "osm_id": "node/4585304002", "method": "osm name+kind", "flag": "", "review": ""}}, {"type": "Feature", "geometry": {"type": "Point", "coordinates": [72.54427, 23.01743]}, "properties": {"rid": "R003", "reported_as": "Manekbaug BRTS", "kind": "brts_station", "osm_query": "Manekbaug", "precision": "point", "time_ist": "2026-07-23 11:50", "source_file": "deshgujarat_2026-07-23_15-locations.html", "source_url": "https://deshgujarat.com/2026/07/23/waterlogging-reported-at-these-15-locations-across-ahmedabad/", "note": "AMC list: waterlogging at BRTS station", "near": "", "match": "Manekbaug Cross Roads, 100 Ft. Road, Ambawadi, SabarmatiTaluka, Ahmedabad, Gujar", "osm_id": "way/1006406670", "method": "nominatim", "flag": "", "review": "accept: Manekbaug Cross Roads: the BRTS station is at this junction"}}, {"type": "Feature", "geometry": {"type": "Point", "coordinates": [72.50341, 23.01976]}, "properties": {"rid": "R004", "reported_as": "Karnavati Club BRTS", "kind": "brts_station", "osm_query": "Karnavati Club", "precision": "point", "time_ist": "2026-07-23 11:50", "source_file": "deshgujarat_2026-07-23_15-locations.html", "source_url": "https://deshgujarat.com/2026/07/23/waterlogging-reported-at-these-15-locations-across-ahmedabad/", "note": "AMC list: waterlogging at BRTS station", "near": "", "match": "Karnavati Club, NH147, Makarba, Sarkhej, Vejalpur Taluka, Ahmedabad, Gujarat, 38", "osm_id": "way/331652565", "method": "nominatim", "flag": "", "review": "accept: Karnavati Club, Makarba: the named club; the BRTS stop is at its gate on SG Highway"}}, {"type": "Feature", "geometry": {"type": "Point", "coordinates": [72.58701, 23.00139]}, "properties": {"rid": "R005", "reported_as": "Swaminarayan College BRTS", "kind": "brts_station", "osm_query": "Swaminarayan College", "precision": "point", "time_ist": "2026-07-23 11:50", "source_file": "deshgujarat_2026-07-23_15-locations.html", "source_url": "https://deshgujarat.com/2026/07/23/waterlogging-reported-at-these-15-locations-across-ahmedabad/", "note": "AMC list: waterlogging at BRTS station", "near": "", "match": "Amarkunj /Swaminarayan College", "osm_id": "node/2265953636", "method": "osm name+kind", "flag": "", "review": ""}}, {"type": "Feature", "geometry": {"type": "Point", "coordinates": [72.58167, 22.99155]}, "properties": {"rid": "R006", "reported_as": "Chhipa Society BRTS", "kind": "brts_station", "osm_query": "Chhipa", "precision": "point", "time_ist": "2026-07-23 11:50", "source_file": "deshgujarat_2026-07-23_15-locations.html", "source_url": "https://deshgujarat.com/2026/07/23/waterlogging-reported-at-these-15-locations-across-ahmedabad/", "note": "AMC list: waterlogging at BRTS station", "near": "", "match": "Chhipa Society", "osm_id": "node/13324639936", "method": "osm name+kind", "flag": "", "review": ""}}, {"type": "Feature", "geometry": {"type": "Point", "coordinates": [72.59531, 22.97401]}, "properties": {"rid": "R007", "reported_as": "Mukesh Industrial BRTS", "kind": "brts_station", "osm_query": "Mukesh", "precision": "point", "time_ist": "2026-07-23 11:50", "source_file": "deshgujarat_2026-07-23_15-locations.html", "source_url": "https://deshgujarat.com/2026/07/23/waterlogging-reported-at-these-15-locations-across-ahmedabad/", "note": "AMC list: waterlogging at BRTS station", "near": "", "match": "Mukesh Industries", "osm_id": "node/13324639931", "method": "osm name+kind", "flag": "", "review": ""}}, {"type": "Feature", "geometry": {"type": "Point", "coordinates": [72.4948, 23.07785]}, "properties": {"rid": "R008", "reported_as": "Science City Approach BRTS", "kind": "brts_station", "osm_query": "Science City", "precision": "street", "time_ist": "2026-07-23 11:50", "source_file": "deshgujarat_2026-07-23_15-locations.html", "source_url": "https://deshgujarat.com/2026/07/23/waterlogging-reported-at-these-15-locations-across-ahmedabad/", "note": "AMC list: waterlogging at BRTS station", "near": "", "match": "Science City, science city road, Bhagvat, Bhadaj, Ghatlodiya Taluka, Ahmedabad, ", "osm_id": "way/530525406", "method": "nominatim", "flag": "", "review": "degrade:street: matched Science City itself; the stop is on its approach road"}}, {"type": "Feature", "geometry": {"type": "Point", "coordinates": [72.54245, 23.04555]}, "properties": {"rid": "R010", "reported_as": "Memnagar BRTS to Jaimangaldas BRTS", "kind": "brts_corridor", "osm_query": "Memnagar", "precision": "street", "time_ist": "2026-07-23 11:50", "source_file": "deshgujarat_2026-07-23_15-locations.html", "source_url": "https://deshgujarat.com/2026/07/23/waterlogging-reported-at-these-15-locations-across-ahmedabad/", "note": "corridor; matched at the Memnagar end", "near": "", "match": "Memnagar", "osm_id": "node/3415672553", "method": "osm name+kind", "flag": "", "review": ""}}, {"type": "Feature", "geometry": {"type": "Point", "coordinates": [72.58564, 23.10713]}, "properties": {"rid": "R012", "reported_as": "Parshwanath Jain Mandir Service Road", "kind": "road", "osm_query": "Parshwanath", "precision": "street", "time_ist": "2026-07-23 11:50", "source_file": "deshgujarat_2026-07-23_15-locations.html", "source_url": "https://deshgujarat.com/2026/07/23/waterlogging-reported-at-these-15-locations-across-ahmedabad/", "note": "exact location unclear", "near": "", "match": "Janta Nagar (Parshwanath Nagar)", "osm_id": "node/611572696", "method": "osm name+kind", "flag": "ambiguous: 3 OSM candidates up to 4.1 km apart: Janta Nagar (Parshwanath Nagar); Parshwanath Atlantis Park; Parshwanath Divine", "review": ""}}, {"type": "Feature", "geometry": {"type": "Point", "coordinates": [72.55961, 23.06642]}, "properties": {"rid": "R013", "reported_as": "Akhbarnagar Underpass", "kind": "underpass", "osm_query": "Akhbarnagar Underpass", "precision": "point", "time_ist": "2026-07-23 11:00", "source_file": "deshgujarat_2026-07-23_underpasses-shut.html", "source_url": "https://deshgujarat.com/2026/07/23/several-underpasses-shut-in-ahmedabad/", "note": "closed to traffic for waterlogging", "near": "", "match": "Akhbarnagar Underpass", "osm_id": "way/168141529", "method": "osm name+kind", "flag": "", "review": ""}}, {"type": "Feature", "geometry": {"type": "Point", "coordinates": [72.50431, 22.99634]}, "properties": {"rid": "R014", "reported_as": "Makarba Underpass", "kind": "underpass", "osm_query": "Makarba", "precision": "locality", "time_ist": "2026-07-23 11:00", "source_file": "deshgujarat_2026-07-23_underpasses-shut.html", "source_url": "https://deshgujarat.com/2026/07/23/several-underpasses-shut-in-ahmedabad/", "note": "closed to traffic for waterlogging", "near": "Makarba", "match": "", "osm_id": "", "method": "source locality", "flag": "degraded to locality: point not found", "review": ""}}, {"type": "Feature", "geometry": {"type": "Point", "coordinates": [72.55823, 23.01696]}, "properties": {"rid": "R015", "reported_as": "Parimal Underpass", "kind": "underpass", "osm_query": "Parimal Underpass", "precision": "point", "time_ist": "2026-07-23 11:00", "source_file": "deshgujarat_2026-07-23_underpasses-shut.html", "source_url": "https://deshgujarat.com/2026/07/23/several-underpasses-shut-in-ahmedabad/", "note": "closed to traffic for waterlogging", "near": "", "match": "Parimal Underpass", "osm_id": "way/167468130", "method": "osm name+kind", "flag": "", "review": ""}}, {"type": "Feature", "geometry": {"type": "Point", "coordinates": [72.56416, 23.03118]}, "properties": {"rid": "R017", "reported_as": "Mithakhali Underpass", "kind": "underpass", "osm_query": "Mithakhali", "precision": "point", "time_ist": "2026-07-23 11:00", "source_file": "deshgujarat_2026-07-23_underpasses-shut.html", "source_url": "https://deshgujarat.com/2026/07/23/several-underpasses-shut-in-ahmedabad/", "note": "closed to traffic for waterlogging", "near": "", "match": "Mithakhali Six Roads Circle / Cross Roads, Gulbai tekra, Navrangpura, SabarmatiT", "osm_id": "way/166955834", "method": "nominatim", "flag": "", "review": "accept: Mithakhali six roads: the underpass is at this junction"}}, {"type": "Feature", "geometry": {"type": "Point", "coordinates": [72.56177, 23.01803]}, "properties": {"rid": "R018", "reported_as": "Jalaram Underpass", "kind": "underpass", "osm_query": "Jalaram", "precision": "point", "time_ist": "2026-07-23 11:00", "source_file": "deshgujarat_2026-07-23_underpasses-shut.html", "source_url": "https://deshgujarat.com/2026/07/23/several-underpasses-shut-in-ahmedabad/", "note": "closed to traffic for waterlogging", "near": "", "match": "Jalaram Mandir, Paldi Underpass, Ambawadi, Navrangpura, SabarmatiTaluka, Ahmedab", "osm_id": "node/440015515", "method": "nominatim", "flag": "", "review": "accept: Jalaram Mandir by Paldi underpass: named feature of the underpass"}}, {"type": "Feature", "geometry": {"type": "Point", "coordinates": [72.55904, 23.07285]}, "properties": {"rid": "R019", "reported_as": "Nirnaynagar Underpass", "kind": "underpass", "osm_query": "Nirnay", "precision": "street", "time_ist": "2026-07-23 11:00", "source_file": "deshgujarat_2026-07-23_underpasses-shut.html", "source_url": "https://deshgujarat.com/2026/07/23/several-underpasses-shut-in-ahmedabad/", "note": "closed to traffic for waterlogging", "near": "", "match": "Vardan Eye Hospital, Ahmedabad, Gota Road Underpass, Nirnay Nagar, Ghatlodiya Ta", "osm_id": "node/6973933665", "method": "nominatim", "flag": "", "review": "degrade:street: match is a hospital near a Gota Road underpass; which underpass is uncertain"}}, {"type": "Feature", "geometry": {"type": "Point", "coordinates": [72.56464, 23.04706]}, "properties": {"rid": "R020", "reported_as": "Usmanpura Underpass", "kind": "underpass", "osm_query": "Usmanpura", "precision": "point", "time_ist": "2026-07-23 20:33", "source_file": "gujaratsamachar_2026-07-23_live-updates.html", "source_url": "https://english.gujaratsamachar.com/news/ahmedabad/ahmedabads-life-comes-to-a-standstill-as-torrential-rains-pound-city-sarkhej-records-highest-rainfall-81165287700", "note": "closed to traffic for waterlogging", "near": "", "match": "Usmanpura Underpass", "osm_id": "way/178823720", "method": "osm name+kind", "flag": "", "review": ""}}, {"type": "Feature", "geometry": {"type": "Point", "coordinates": [72.6114, 22.99866]}, "properties": {"rid": "R022", "reported_as": "Daxini Underpass, Maninagar", "kind": "underpass", "osm_query": "Dakshini", "precision": "locality", "time_ist": "2026-07-23 20:15", "source_file": "gujaratsamachar_2026-07-23_live-updates.html", "source_url": "https://english.gujaratsamachar.com/news/ahmedabad/ahmedabads-life-comes-to-a-standstill-as-torrential-rains-pound-city-sarkhej-records-highest-rainfall-81165287700", "note": "closed to traffic for waterlogging", "near": "Maninagar", "match": "", "osm_id": "", "method": "source locality", "flag": "degraded to locality: point not found", "review": ""}}, {"type": "Feature", "geometry": {"type": "Point", "coordinates": [72.52904, 23.04009]}, "properties": {"rid": "R024", "reported_as": "LC-20 Vastrapur", "kind": "underpass", "osm_query": "Vastrapur", "precision": "locality", "time_ist": "2026-07-23", "source_file": "gujaratsamachar_2026-07-23_live-updates.html", "source_url": "https://english.gujaratsamachar.com/news/ahmedabad/ahmedabads-life-comes-to-a-standstill-as-torrential-rains-pound-city-sarkhej-records-highest-rainfall-81165287700", "note": "closed to traffic for waterlogging", "near": "Vastrapur", "match": "", "osm_id": "", "method": "source locality", "flag": "degraded to locality: point not found", "review": ""}}, {"type": "Feature", "geometry": {"type": "Point", "coordinates": [72.52084, 23.00694]}, "properties": {"rid": "R025", "reported_as": "LC-22 Vejalpur", "kind": "underpass", "osm_query": "Vejalpur", "precision": "locality", "time_ist": "2026-07-23 21:25", "source_file": "gujaratsamachar_2026-07-23_live-updates.html", "source_url": "https://english.gujaratsamachar.com/news/ahmedabad/ahmedabads-life-comes-to-a-standstill-as-torrential-rains-pound-city-sarkhej-records-highest-rainfall-81165287700", "note": "closed to traffic for waterlogging", "near": "Vejalpur", "match": "", "osm_id": "", "method": "source locality", "flag": "degraded to locality: point not found", "review": ""}}, {"type": "Feature", "geometry": {"type": "Point", "coordinates": [72.58112, 23.11006]}, "properties": {"rid": "R026", "reported_as": "LC 1C Chandkheda", "kind": "underpass", "osm_query": "Chandkheda", "precision": "locality", "time_ist": "2026-07-23 21:06", "source_file": "gujaratsamachar_2026-07-23_live-updates.html", "source_url": "https://english.gujaratsamachar.com/news/ahmedabad/ahmedabads-life-comes-to-a-standstill-as-torrential-rains-pound-city-sarkhej-records-highest-rainfall-81165287700", "note": "closed to traffic for waterlogging", "near": "Chandkheda", "match": "", "osm_id": "", "method": "source locality", "flag": "degraded to locality: point not found", "review": ""}}, {"type": "Feature", "geometry": {"type": "Point", "coordinates": [72.58112, 23.11006]}, "properties": {"rid": "R027", "reported_as": "LC 03 Chandkheda", "kind": "underpass", "osm_query": "Chandkheda", "precision": "locality", "time_ist": "2026-07-23 20:00", "source_file": "gujaratsamachar_2026-07-23_live-updates.html", "source_url": "https://english.gujaratsamachar.com/news/ahmedabad/ahmedabads-life-comes-to-a-standstill-as-torrential-rains-pound-city-sarkhej-records-highest-rainfall-81165287700", "note": "closed to traffic for waterlogging", "near": "Chandkheda", "match": "", "osm_id": "", "method": "source locality", "flag": "degraded to locality: point not found", "review": ""}}, {"type": "Feature", "geometry": {"type": "Point", "coordinates": [72.5661, 23.08448]}, "properties": {"rid": "R028", "reported_as": "GST Ranip underpass", "kind": "underpass", "osm_query": "GST", "precision": "point", "time_ist": "2026-07-23 21:40", "source_file": "gujaratsamachar_2026-07-23_live-updates.html", "source_url": "https://english.gujaratsamachar.com/news/ahmedabad/ahmedabads-life-comes-to-a-standstill-as-torrential-rains-pound-city-sarkhej-records-highest-rainfall-81165287700", "note": "closed to traffic for waterlogging", "near": "Ranip", "match": "GST Crossing 1 (AMTS), CHANDLODIA STATION ROAD, Ranip, SabarmatiTaluka, Ahmedaba", "osm_id": "node/2211705413", "method": "nominatim", "flag": "", "review": "accept: GST Crossing 1: the rail crossing the underpass replaced"}}, {"type": "Feature", "geometry": {"type": "Point", "coordinates": [72.46409, 23.03401]}, "properties": {"rid": "R029", "reported_as": "Bopal Gam BRTS", "kind": "brts_station", "osm_query": "Bopal Gam", "precision": "point", "time_ist": "2026-07-23", "source_file": "gujaratsamachar_amc-waterlogging-spots.html", "source_url": "https://english.gujaratsamachar.com/news/ahmedabad/ahmedabad-deluged-over-8-inches-of-rain-exposes-amcs-multi-crore-pre-monsoon-claims-as-posh-belts-submerge-73506814338", "note": "BRTS operations suspended: water on platforms", "near": "", "match": "Bopal gam", "osm_id": "node/8153542476", "method": "osm name+kind", "flag": "", "review": ""}}, {"type": "Feature", "geometry": {"type": "Point", "coordinates": [72.45961, 23.03208]}, "properties": {"rid": "R030", "reported_as": "Little Wing BRTS", "kind": "brts_station", "osm_query": "Little Wing", "precision": "point", "time_ist": "2026-07-23", "source_file": "gujaratsamachar_amc-waterlogging-spots.html", "source_url": "https://english.gujaratsamachar.com/news/ahmedabad/ahmedabad-deluged-over-8-inches-of-rain-exposes-amcs-multi-crore-pre-monsoon-claims-as-posh-belts-submerge-73506814338", "note": "BRTS operations suspended: water on platforms", "near": "", "match": "Little Wings BRTS stop", "osm_id": "node/5711617727", "method": "osm name+kind", "flag": "", "review": ""}}, {"type": "Feature", "geometry": {"type": "Point", "coordinates": [72.45008, 23.03339]}, "properties": {"rid": "R031", "reported_as": "Ghuma Gam BRTS", "kind": "brts_station", "osm_query": "Ghuma", "precision": "point", "time_ist": "2026-07-23", "source_file": "gujaratsamachar_amc-waterlogging-spots.html", "source_url": "https://english.gujaratsamachar.com/news/ahmedabad/ahmedabad-deluged-over-8-inches-of-rain-exposes-amcs-multi-crore-pre-monsoon-claims-as-posh-belts-submerge-73506814338", "note": "BRTS operations suspended: water on platforms", "near": "", "match": "Ghuma BRTS terminal", "osm_id": "node/5711622445", "method": "osm name+kind", "flag": "", "review": ""}}, {"type": "Feature", "geometry": {"type": "Point", "coordinates": [72.47514, 23.01735]}, "properties": {"rid": "R032", "reported_as": "Chitavan to SoBo Center BRTS", "kind": "brts_station", "osm_query": "SoBo", "precision": "point", "time_ist": "2026-07-23", "source_file": "gujaratsamachar_amc-waterlogging-spots.html", "source_url": "https://english.gujaratsamachar.com/news/ahmedabad/ahmedabad-deluged-over-8-inches-of-rain-exposes-amcs-multi-crore-pre-monsoon-claims-as-posh-belts-submerge-73506814338", "note": "BRTS operations suspended: water on platforms", "near": "South Bopal", "match": "Sobo Centre, Sanand Taluka, Ahmedabad, Gujarat, India", "osm_id": "way/478644005", "method": "nominatim", "flag": "", "review": "accept: Sobo Centre, South Bopal: named endpoint of the reported stretch"}}, {"type": "Feature", "geometry": {"type": "Point", "coordinates": [72.46915, 23.03232]}, "properties": {"rid": "R036", "reported_as": "Sterling City, Bopal", "kind": "residential", "osm_query": "Sterling City", "precision": "point", "time_ist": "2026-07-23", "source_file": "gujaratsamachar_amc-waterlogging-spots.html", "source_url": "https://english.gujaratsamachar.com/news/ahmedabad/ahmedabad-deluged-over-8-inches-of-rain-exposes-amcs-multi-crore-pre-monsoon-claims-as-posh-belts-submerge-73506814338", "note": "worst-affected residential zone", "near": "Bopal", "match": "Sterling City, Bopal-Ghuma road, South Bopal, Ghuma, Sanand Taluka, Ahmedabad, G", "osm_id": "node/8153545458", "method": "nominatim", "flag": "", "review": "accept: Sterling City, South Bopal: the named complex"}}, {"type": "Feature", "geometry": {"type": "Point", "coordinates": [72.50431, 22.99634]}, "properties": {"rid": "R038", "reported_as": "School campus, Makarba (40 children rescued)", "kind": "incident", "osm_query": "Makarba", "precision": "locality", "time_ist": "2026-07-23", "source_file": "gujaratsamachar_amc-waterlogging-spots.html", "source_url": "https://english.gujaratsamachar.com/news/ahmedabad/ahmedabad-deluged-over-8-inches-of-rain-exposes-amcs-multi-crore-pre-monsoon-claims-as-posh-belts-submerge-73506814338", "note": "school not named", "near": "Makarba", "match": "Makarba, Sarkhej, Vejalpur Taluka, Ahmedabad, Gujarat, 380051, India", "osm_id": "node/4485383290", "method": "nominatim", "flag": "", "review": ""}}, {"type": "Feature", "geometry": {"type": "Point", "coordinates": [72.54084, 23.101]}, "properties": {"rid": "R039", "reported_as": "Tekri area by Gota crematorium (3 boys rescued)", "kind": "incident", "osm_query": "Gota crematorium", "precision": "locality", "time_ist": "2026-07-23", "source_file": "gujaratsamachar_amc-waterlogging-spots.html", "source_url": "https://english.gujaratsamachar.com/news/ahmedabad/ahmedabad-deluged-over-8-inches-of-rain-exposes-amcs-multi-crore-pre-monsoon-claims-as-posh-belts-submerge-73506814338", "note": "", "near": "Gota", "match": "", "osm_id": "", "method": "source locality", "flag": "degraded to locality: point not found", "review": ""}}, {"type": "Feature", "geometry": {"type": "Point", "coordinates": [72.45878, 23.03858]}, "properties": {"rid": "R040", "reported_as": "Khodiyar temple lake wall, Bopal (water swept 3 cars)", "kind": "incident", "osm_query": "Khodiyar", "precision": "locality", "time_ist": "2026-07-23", "source_file": "gujaratsamachar_amc-waterlogging-spots.html", "source_url": "https://english.gujaratsamachar.com/news/ahmedabad/ahmedabad-deluged-over-8-inches-of-rain-exposes-amcs-multi-crore-pre-monsoon-claims-as-posh-belts-submerge-73506814338", "note": "", "near": "Bopal", "match": "", "osm_id": "", "method": "source locality", "flag": "degraded to locality: point not found", "review": ""}}, {"type": "Feature", "geometry": {"type": "Point", "coordinates": [72.59329, 23.07511]}, "properties": {"rid": "R041", "reported_as": "AEC Bridge (deep water, gridlock)", "kind": "road", "osm_query": "AEC", "precision": "point", "time_ist": "2026-07-23", "source_file": "gujaratsamachar_amc-waterlogging-spots.html", "source_url": "https://english.gujaratsamachar.com/news/ahmedabad/ahmedabad-deluged-over-8-inches-of-rain-exposes-amcs-multi-crore-pre-monsoon-claims-as-posh-belts-submerge-73506814338", "note": "", "near": "", "match": "AEC", "osm_id": "node/12196641362", "method": "osm name+kind", "flag": "", "review": "accept: OSM place 'AEC' at the AEC crossing; the bridge report names it"}}, {"type": "Feature", "geometry": {"type": "Point", "coordinates": [72.52088, 23.05812]}, "properties": {"rid": "R042", "reported_as": "Palladium Mall bridge, SG Road (buses stalled)", "kind": "road", "osm_query": "Palladium Mall", "precision": "point", "time_ist": "2026-07-23", "source_file": "gujaratsamachar_2026-07-23_live-updates.html", "source_url": "https://english.gujaratsamachar.com/news/ahmedabad/ahmedabads-life-comes-to-a-standstill-as-torrential-rains-pound-city-sarkhej-records-highest-rainfall-81165287700", "note": "", "near": "", "match": "Palladium Mall", "osm_id": "node/11300307469", "method": "osm name+kind", "flag": "", "review": ""}}, {"type": "Feature", "geometry": {"type": "Point", "coordinates": [72.52084, 23.00694]}, "properties": {"rid": "R043", "reported_as": "Bakery City, Vejalpur (school bus stranded)", "kind": "incident", "osm_query": "Bakery City", "precision": "locality", "time_ist": "2026-07-23", "source_file": "gujaratsamachar_2026-07-23_live-updates.html", "source_url": "https://english.gujaratsamachar.com/news/ahmedabad/ahmedabads-life-comes-to-a-standstill-as-torrential-rains-pound-city-sarkhej-records-highest-rainfall-81165287700", "note": "", "near": "Vejalpur", "match": "", "osm_id": "", "method": "source locality", "flag": "degraded to locality: point not found", "review": ""}}, {"type": "Feature", "geometry": {"type": "Point", "coordinates": [72.54084, 23.101]}, "properties": {"rid": "R044", "reported_as": "Harivilla Flats, Gota", "kind": "residential", "osm_query": "Harivilla", "precision": "locality", "time_ist": "2026-07-23", "source_file": "deshgujarat_2026-07-23_43-societies.html", "source_url": "https://deshgujarat.com/2026/07/23/43-housing-societies-66-areas-are-waterlogged-in-ahmedabad-due-to-heavy-rain/", "note": "AMC list of societies reporting waterlogging", "near": "Gota", "match": "", "osm_id": "", "method": "source locality", "flag": "degraded to locality: point not found", "review": ""}}, {"type": "Feature", "geometry": {"type": "Point", "coordinates": [72.55208, 23.08365]}, "properties": {"rid": "R045", "reported_as": "Someshwar Complex, Chandlodia", "kind": "residential", "osm_query": "Someshwar", "precision": "locality", "time_ist": "2026-07-23", "source_file": "deshgujarat_2026-07-23_43-societies.html", "source_url": "https://deshgujarat.com/2026/07/23/43-housing-societies-66-areas-are-waterlogged-in-ahmedabad-due-to-heavy-rain/", "note": "AMC list of societies reporting waterlogging", "near": "Chandlodia", "match": "", "osm_id": "", "method": "source locality", "flag": "degraded to locality: point not found", "review": ""}}, {"type": "Feature", "geometry": {"type": "Point", "coordinates": [72.5285, 23.00408]}, "properties": {"rid": "R047", "reported_as": "Sursagar Flats, Rajwadi Estate, Juhapura", "kind": "residential", "osm_query": "Sursagar", "precision": "locality", "time_ist": "2026-07-23", "source_file": "deshgujarat_2026-07-23_43-societies.html", "source_url": "https://deshgujarat.com/2026/07/23/43-housing-societies-66-areas-are-waterlogged-in-ahmedabad-due-to-heavy-rain/", "note": "AMC list of societies reporting waterlogging", "near": "Juhapura", "match": "", "osm_id": "", "method": "source locality", "flag": "degraded to locality: point not found", "review": ""}}, {"type": "Feature", "geometry": {"type": "Point", "coordinates": [72.45878, 23.03858]}, "properties": {"rid": "R048", "reported_as": "Bopal", "kind": "locality", "osm_query": "Bopal", "precision": "locality", "time_ist": "2026-07-23", "source_file": "gujaratsamachar_amc-waterlogging-spots.html", "source_url": "https://english.gujaratsamachar.com/news/ahmedabad/ahmedabad-deluged-over-8-inches-of-rain-exposes-amcs-multi-crore-pre-monsoon-claims-as-posh-belts-submerge-73506814338", "note": "listed as submerged", "near": "", "match": "Bopal Lake, Ghuma, Sanand Taluka, Ahmedabad, Gujarat, India", "osm_id": "way/366778319", "method": "nominatim", "flag": "", "review": ""}}, {"type": "Feature", "geometry": {"type": "Point", "coordinates": [72.44271, 23.01082]}, "properties": {"rid": "R049", "reported_as": "Shela", "kind": "locality", "osm_query": "Shela", "precision": "locality", "time_ist": "2026-07-23", "source_file": "gujaratsamachar_amc-waterlogging-spots.html", "source_url": "https://english.gujaratsamachar.com/news/ahmedabad/ahmedabad-deluged-over-8-inches-of-rain-exposes-amcs-multi-crore-pre-monsoon-claims-as-posh-belts-submerge-73506814338", "note": "listed as submerged", "near": "", "match": "Shela Lake, Ghuma, Sanand Taluka, Ahmedabad, Gujarat, India", "osm_id": "way/986297013", "method": "nominatim", "flag": "", "review": ""}}, {"type": "Feature", "geometry": {"type": "Point", "coordinates": [72.50072, 22.98348]}, "properties": {"rid": "R050", "reported_as": "Sarkhej", "kind": "locality", "osm_query": "Sarkhej", "precision": "locality", "time_ist": "2026-07-23", "source_file": "gujaratsamachar_amc-waterlogging-spots.html", "source_url": "https://english.gujaratsamachar.com/news/ahmedabad/ahmedabad-deluged-over-8-inches-of-rain-exposes-amcs-multi-crore-pre-monsoon-claims-as-posh-belts-submerge-73506814338", "note": "listed as submerged", "near": "", "match": "Sarkhej, Vejalpur Taluka, Ahmedabad, Gujarat, 380051, India", "osm_id": "node/1545721827", "method": "nominatim", "flag": "", "review": ""}}, {"type": "Feature", "geometry": {"type": "Point", "coordinates": [72.52084, 23.00694]}, "properties": {"rid": "R051", "reported_as": "Vejalpur", "kind": "locality", "osm_query": "Vejalpur", "precision": "locality", "time_ist": "2026-07-23", "source_file": "gujaratsamachar_amc-waterlogging-spots.html", "source_url": "https://english.gujaratsamachar.com/news/ahmedabad/ahmedabad-deluged-over-8-inches-of-rain-exposes-amcs-multi-crore-pre-monsoon-claims-as-posh-belts-submerge-73506814338", "note": "listed as submerged", "near": "", "match": "vejalpur, Sarkhej, Vejalpur Taluka, Ahmedabad, Gujarat, 380051, India", "osm_id": "node/4485345489", "method": "nominatim", "flag": "", "review": ""}}, {"type": "Feature", "geometry": {"type": "Point", "coordinates": [72.52043, 23.01693]}, "properties": {"rid": "R052", "reported_as": "Jodhpur", "kind": "locality", "osm_query": "Jodhpur", "precision": "locality", "time_ist": "2026-07-23", "source_file": "gujaratsamachar_amc-waterlogging-spots.html", "source_url": "https://english.gujaratsamachar.com/news/ahmedabad/ahmedabad-deluged-over-8-inches-of-rain-exposes-amcs-multi-crore-pre-monsoon-claims-as-posh-belts-submerge-73506814338", "note": "listed as submerged", "near": "", "match": "Jodhpur, Sarkhej, Vejalpur Taluka, Ahmedabad, Gujarat, 380015, India", "osm_id": "node/3415707455", "method": "nominatim", "flag": "", "review": ""}}, {"type": "Feature", "geometry": {"type": "Point", "coordinates": [72.53357, 23.10487]}, "properties": {"rid": "R053", "reported_as": "SG Highway", "kind": "locality", "osm_query": "SG Highway", "precision": "locality", "time_ist": "2026-07-23", "source_file": "gujaratsamachar_amc-waterlogging-spots.html", "source_url": "https://english.gujaratsamachar.com/news/ahmedabad/ahmedabad-deluged-over-8-inches-of-rain-exposes-amcs-multi-crore-pre-monsoon-claims-as-posh-belts-submerge-73506814338", "note": "listed as submerged", "near": "", "match": "SG Highway, Bhagvat, ઓગણજ, Ghatlodiya Taluka, Ahmedabad, Gujarat, 380081, India", "osm_id": "way/1329386573", "method": "nominatim", "flag": "", "review": ""}}, {"type": "Feature", "geometry": {"type": "Point", "coordinates": [72.50929, 23.01145]}, "properties": {"rid": "R054", "reported_as": "Prahladnagar", "kind": "locality", "osm_query": "Prahladnagar", "precision": "locality", "time_ist": "2026-07-23", "source_file": "gujaratsamachar_amc-waterlogging-spots.html", "source_url": "https://english.gujaratsamachar.com/news/ahmedabad/ahmedabad-deluged-over-8-inches-of-rain-exposes-amcs-multi-crore-pre-monsoon-claims-as-posh-belts-submerge-73506814338", "note": "listed as submerged", "near": "", "match": "Prahladnagar, Sarkhej, Vejalpur Taluka, Ahmedabad, Gujarat, 380051, India", "osm_id": "node/4486451843", "method": "nominatim", "flag": "", "review": ""}}, {"type": "Feature", "geometry": {"type": "Point", "coordinates": [72.52904, 23.04009]}, "properties": {"rid": "R055", "reported_as": "Vastrapur", "kind": "locality", "osm_query": "Vastrapur", "precision": "locality", "time_ist": "2026-07-23", "source_file": "gujaratsamachar_amc-waterlogging-spots.html", "source_url": "https://english.gujaratsamachar.com/news/ahmedabad/ahmedabad-deluged-over-8-inches-of-rain-exposes-amcs-multi-crore-pre-monsoon-claims-as-posh-belts-submerge-73506814338", "note": "listed as submerged", "near": "", "match": "Vastrapur, Vejalpur Taluka, Ahmedabad, Gujarat, 380054, India", "osm_id": "node/3415668799", "method": "nominatim", "flag": "", "review": ""}}, {"type": "Feature", "geometry": {"type": "Point", "coordinates": [72.55086, 23.05671]}, "properties": {"rid": "R056", "reported_as": "Naranpura", "kind": "locality", "osm_query": "Naranpura", "precision": "locality", "time_ist": "2026-07-23", "source_file": "gujaratsamachar_amc-waterlogging-spots.html", "source_url": "https://english.gujaratsamachar.com/news/ahmedabad/ahmedabad-deluged-over-8-inches-of-rain-exposes-amcs-multi-crore-pre-monsoon-claims-as-posh-belts-submerge-73506814338", "note": "listed as submerged", "near": "", "match": "Naranpura, SabarmatiTaluka, Ahmedabad, Gujarat, 380063, India", "osm_id": "node/4486388479", "method": "nominatim", "flag": "", "review": ""}}, {"type": "Feature", "geometry": {"type": "Point", "coordinates": [72.56354, 23.01455]}, "properties": {"rid": "R057", "reported_as": "Paldi", "kind": "locality", "osm_query": "Paldi", "precision": "locality", "time_ist": "2026-07-23", "source_file": "gujaratsamachar_amc-waterlogging-spots.html", "source_url": "https://english.gujaratsamachar.com/news/ahmedabad/ahmedabad-deluged-over-8-inches-of-rain-exposes-amcs-multi-crore-pre-monsoon-claims-as-posh-belts-submerge-73506814338", "note": "listed as submerged", "near": "", "match": "Paldi, SabarmatiTaluka, Ahmedabad, Gujarat, 380007, India", "osm_id": "node/1559491365", "method": "nominatim", "flag": "", "review": ""}}, {"type": "Feature", "geometry": {"type": "Point", "coordinates": [72.67187, 23.05893]}, "properties": {"rid": "R058", "reported_as": "Nikol", "kind": "locality", "osm_query": "Nikol", "precision": "locality", "time_ist": "2026-07-23", "source_file": "gujaratsamachar_amc-waterlogging-spots.html", "source_url": "https://english.gujaratsamachar.com/news/ahmedabad/ahmedabad-deluged-over-8-inches-of-rain-exposes-amcs-multi-crore-pre-monsoon-claims-as-posh-belts-submerge-73506814338", "note": "knee-deep waterlogging on roads", "near": "", "match": "Madhuvan Green Party Plot ,Nikol, Nava Naroda, Asarva Taluka, Ahmedabad, Gujarat", "osm_id": "way/451513556", "method": "nominatim", "flag": "", "review": ""}}, {"type": "Feature", "geometry": {"type": "Point", "coordinates": [72.63033, 23.00802]}, "properties": {"rid": "R059", "reported_as": "Ramol", "kind": "locality", "osm_query": "Ramol", "precision": "locality", "time_ist": "2026-07-23", "source_file": "gujaratsamachar_amc-waterlogging-spots.html", "source_url": "https://english.gujaratsamachar.com/news/ahmedabad/ahmedabad-deluged-over-8-inches-of-rain-exposes-amcs-multi-crore-pre-monsoon-claims-as-posh-belts-submerge-73506814338", "note": "knee-deep waterlogging on roads", "near": "", "match": "Jantanagar -Ramol, Maninagar Taluka, Ahmedabad, Gujarat, 380026, India", "osm_id": "node/4486834935", "method": "nominatim", "flag": "", "review": ""}}, {"type": "Feature", "geometry": {"type": "Point", "coordinates": [72.66244, 22.99487]}, "properties": {"rid": "R060", "reported_as": "Vastral", "kind": "locality", "osm_query": "Vastral", "precision": "locality", "time_ist": "2026-07-23", "source_file": "gujaratsamachar_amc-waterlogging-spots.html", "source_url": "https://english.gujaratsamachar.com/news/ahmedabad/ahmedabad-deluged-over-8-inches-of-rain-exposes-amcs-multi-crore-pre-monsoon-claims-as-posh-belts-submerge-73506814338", "note": "knee-deep waterlogging on roads", "near": "", "match": "Vastral, Vatva Taluka, Ahmedabad, Gujarat, 382433, India", "osm_id": "node/4488607993", "method": "nominatim", "flag": "", "review": ""}}, {"type": "Feature", "geometry": {"type": "Point", "coordinates": [72.6114, 22.99866]}, "properties": {"rid": "R061", "reported_as": "Maninagar", "kind": "locality", "osm_query": "Maninagar", "precision": "locality", "time_ist": "2026-07-23", "source_file": "gujaratsamachar_amc-waterlogging-spots.html", "source_url": "https://english.gujaratsamachar.com/news/ahmedabad/ahmedabad-deluged-over-8-inches-of-rain-exposes-amcs-multi-crore-pre-monsoon-claims-as-posh-belts-submerge-73506814338", "note": "knee-deep waterlogging on roads", "near": "", "match": "Maninagar, Lala Lajpat Rai Marg, Uttamnagar, Maninagar, Maninagar Taluka, Ahmeda", "osm_id": "node/323120091", "method": "nominatim", "flag": "", "review": ""}}, {"type": "Feature", "geometry": {"type": "Point", "coordinates": [72.62927, 22.99516]}, "properties": {"rid": "R062", "reported_as": "CTM", "kind": "locality", "osm_query": "CTM", "precision": "locality", "time_ist": "2026-07-23", "source_file": "gujaratsamachar_amc-waterlogging-spots.html", "source_url": "https://english.gujaratsamachar.com/news/ahmedabad/ahmedabad-deluged-over-8-inches-of-rain-exposes-amcs-multi-crore-pre-monsoon-claims-as-posh-belts-submerge-73506814338", "note": "knee-deep waterlogging on roads", "near": "", "match": "CTM Flyover 2, Rabari Colony, Maninagar Taluka, Ahmedabad, Gujarat, 380026, Indi", "osm_id": "way/1201410161", "method": "nominatim", "flag": "", "review": ""}}, {"type": "Feature", "geometry": {"type": "Point", "coordinates": [72.60129, 22.98113]}, "properties": {"rid": "R063", "reported_as": "Isanpur", "kind": "locality", "osm_query": "Isanpur", "precision": "locality", "time_ist": "2026-07-23", "source_file": "gujaratsamachar_amc-waterlogging-spots.html", "source_url": "https://english.gujaratsamachar.com/news/ahmedabad/ahmedabad-deluged-over-8-inches-of-rain-exposes-amcs-multi-crore-pre-monsoon-claims-as-posh-belts-submerge-73506814338", "note": "knee-deep waterlogging on roads", "near": "", "match": "Isanpur, Maninagar Taluka, Ahmedabad, Gujarat, 382443, India", "osm_id": "node/4486828735", "method": "nominatim", "flag": "", "review": ""}}, {"type": "Feature", "geometry": {"type": "Point", "coordinates": [72.65809, 23.08541]}, "properties": {"rid": "R064", "reported_as": "Naroda", "kind": "locality", "osm_query": "Naroda", "precision": "locality", "time_ist": "2026-07-23", "source_file": "gujaratsamachar_amc-waterlogging-spots.html", "source_url": "https://english.gujaratsamachar.com/news/ahmedabad/ahmedabad-deluged-over-8-inches-of-rain-exposes-amcs-multi-crore-pre-monsoon-claims-as-posh-belts-submerge-73506814338", "note": "knee-deep waterlogging on roads", "near": "", "match": "Naroda, Satguru Swami Teoonramji Maharaj Flyover, Naroda GIDC, Naroda, Asarva Ta", "osm_id": "node/322770856", "method": "nominatim", "flag": "", "review": ""}}, {"type": "Feature", "geometry": {"type": "Point", "coordinates": [72.4506, 23.02951]}, "properties": {"rid": "R066", "reported_as": "Bopal-Ghuma-Shela belt", "kind": "locality", "osm_query": "Ghuma", "precision": "locality", "time_ist": "2026-07-25", "source_file": "deshgujarat_2026-07-25_societies-cleared.html", "source_url": "https://deshgujarat.com/2026/07/25/rainwater-cleared-from-107-of-126-waterlogged-societies-in-ahmedabad-amc/", "note": "AMC: among worst affected", "near": "", "match": "Ghuma, Sanand Taluka, Ahmedabad, Gujarat, 380058, India", "osm_id": "node/4486679705", "method": "nominatim", "flag": "", "review": ""}}]}