{
 "type": "FeatureCollection",
 "features": [
  {
   "type": "Feature",
   "geometry": {
    "type": "Polygon",
    "coordinates": [
     [
      [
       72.43842770389158,
       22.99196400061363
      ],
      [
       72.43825732567306,
       23.000988381052338
      ],
      [
       72.42850924035294,
       23.0008303134132
      ],
      [
       72.42868026516545,
       22.991806001947914
      ],
      [
       72.43842770389158,
       22.99196400061363
      ]
     ]
    ]
   },
   "properties": {
    "ann_id": "e1-01",
    "exhibit": "EX-1",
    "panel": "D",
    "class": "OBSERVED",
    "label": "New open water on 14% of the judgeable ground in this 1 km square; 100% of that water is on cropland",
    "sensor": "Sentinel-1D C-SAR IW GRDH",
    "acq_utc": "2026-07-25 01:09Z",
    "gsd_m": 10,
    "source": "S1D_IW_GRDH_1SDV_20260725T010925_20260725T010950_003823_006E26_FBB7",
    "geom_precision": "1 km analysis square, not a feature outline"
   }
  },
  {
   "type": "Feature",
   "geometry": {
    "type": "LineString",
    "coordinates": [
     [
      72.5116306287407,
      22.964342376040108
     ],
     [
      72.51234422759063,
      22.967964588511595
     ],
     [
      72.51315532079235,
      22.97158832937835
     ],
     [
      72.51386897935284,
      22.97521053889137
     ],
     [
      72.51468013759703,
      22.978834276312977
     ],
     [
      72.51539385591387,
      22.98245648285921
     ],
     [
      72.51610760280016,
      22.98607868802482
     ],
     [
      72.51682137826683,
      22.9897008918079
     ],
     [
      72.51773014584039,
      22.9933261509021
     ],
     [
      72.51844398380754,
      22.996948351489717
     ],
     [
      72.5190603633196,
      23.00056902279562
     ],
     [
      72.51987174559558,
      23.004192748497147
     ],
     [
      72.52058566943838,
      23.007814944913093
     ],
     [
      72.52139711697092,
      23.011438667129504
     ],
     [
      72.52220859848191,
      23.015062387463452
     ],
     [
      72.52302011398383,
      23.01868610591251
     ],
     [
      72.52373416045205,
      23.02230829609903
     ],
     [
      72.5244482356128,
      23.025930484882945
     ],
     [
      72.52516233947702,
      23.02955267226235
     ],
     [
      72.5259739830671,
      23.03317638396935
     ],
     [
      72.52668814703031,
      23.036798568319888
     ],
     [
      72.52749985606886,
      23.040422276505748
     ],
     [
      72.52821408017702,
      23.04404445781908
     ],
     [
      72.52902585471206,
      23.04766816247479
     ],
     [
      72.52983766334809,
      23.05129186522467
     ],
     [
      72.53055197909067,
      23.054914041859117
     ]
    ]
   },
   "properties": {
    "ann_id": "e1-02",
    "exhibit": "EX-1",
    "panel": "B",
    "class": "LIMIT",
    "label": "Edge of the radar swath: nothing east of this line was imaged",
    "evidence": "east edge of valid gamma0 pixels, 25 Jul scene",
    "geom_precision": "10 m"
   }
  },
  {
   "type": "Feature",
   "geometry": {
    "type": "Polygon",
    "coordinates": [
     [
      [
       72.44872849388017,
       23.00783834808036
      ],
      [
       72.44838624549439,
       23.007310377503785
      ],
      [
       72.4479901078078,
       23.006815753117
      ],
      [
       72.44754384356014,
       23.006359172360224
      ],
      [
       72.44705169141412,
       23.005944971315774
      ],
      [
       72.44651832569139,
       23.00557708354003
      ],
      [
       72.44594881197705,
       23.00525900271905
      ],
      [
       72.4453485590147,
       23.004993749501946
      ],
      [
       72.44472326734834,
       23.004783842826445
      ],
      [
       72.44407887519874,
       23.004631276008425
      ],
      [
       72.44342150208743,
       23.004537497822028
      ],
      [
       72.44275739074288,
       23.004503398749463
      ],
      [
       72.44209284783972,
       23.004529302530997
      ],
      [
       72.44143418413246,
       23.004614963094717
      ],
      [
       72.44078765455122,
       23.004759566895434
      ],
      [
       72.44015939882713,
       23.004961740640177
      ],
      [
       72.43955538321016,
       23.005219564327092
      ],
      [
       72.43898134383139,
       23.00553058947398
      ],
      [
       72.43844273224701,
       23.005891862363743
      ],
      [
       72.43794466368031,
       23.006299952086103
      ],
      [
       72.43749186845206,
       23.006750983109992
      ],
      [
       72.43708864706063,
       23.007240672077472
      ],
      [
       72.43673882933794,
       23.007764368470497
      ],
      [
       72.43644573806907,
       23.00831709876474
      ],
      [
       72.43621215742147,
       23.008893613651786
      ],
      [
       72.4360403064838,
       23.0094884378817
      ],
      [
       72.43593181816695,
       23.010095922253083
      ],
      [
       72.43588772366755,
       23.01071029725739
      ],
      [
       72.43590844264367,
       23.011325727868343
      ],
      [
       72.43599377919624,
       23.011936368956288
      ],
      [
       72.43614292369622,
       23.012536420801535
      ],
      [
       72.43635446044114,
       23.013120184179368
      ],
      [
       72.44424235007698,
       23.031810429867786
      ],
      [
       72.4445458655611,
       23.03242910221601
      ],
      [
       72.4449194117132,
       23.033014029493362
      ],
      [
       72.44535866892988,
       23.033558446260667
      ],
      [
       72.45353310540287,
       23.04262760384493
      ],
      [
       72.45398583930721,
       23.043082585441176
      ],
      [
       72.45448447742227,
       23.043494417335815
      ],
      [
       72.4550242409513,
       23.043859152255703
      ],
      [
       72.45559995679086,
       23.04417329429084
      ],
      [
       72.4562061071153,
       23.044433832413745
      ],
      [
       72.45683688227149,
       23.044638269351307
      ],
      [
       72.45748623647606,
       23.04478464553166
      ],
      [
       72.45814794578094,
       23.04487155787619
      ],
      [
       72.45881566775034,
       23.04489817325605
      ],
      [
       72.45948300227656,
       23.044864236483875
      ],
      [
       72.46014355295023,
       23.04477007276378
      ],
      [
       72.46079098839581,
       23.044616584576023
      ],
      [
       72.46141910298287,
       23.044405243026166
      ],
      [
       72.46202187633041,
       23.044138073741646
      ],
      [
       72.4625935310326,
       23.043817637451188
      ],
      [
       72.46312858805128,
       23.04344700543333
      ],
      [
       72.46362191924422,
       23.04302973007001
      ],
      [
       72.4640687965242,
       23.042569810787512
      ],
      [
       72.46446493717768,
       23.042071655712142
      ],
      [
       72.46480654490868,
       23.041540039408332
      ],
      [
       72.46509034621404,
       23.04098005710509
      ],
      [
       72.46531362174217,
       23.040397075849842
      ],
      [
       72.46547423233511,
       23.03979668305854
      ],
      [
       72.46557063950492,
       23.03918463295558
      ],
      [
       72.46560192014937,
       23.038566791417267
      ],
      [
       72.46556777536684,
       23.037949079747914
      ],
      [
       72.46546853328712,
       23.0373374179275
      ],
      [
       72.46530514589247,
       23.03673766787518
      ],
      [
       72.46507917986044,
       23.03615557727227
      ],
      [
       72.46479280151779,
       23.035596724483117
      ],
      [
       72.44872849388017,
       23.00783834808036
      ]
     ]
    ]
   },
   "properties": {
    "ann_id": "e1-03",
    "exhibit": "EX-1",
    "panel": "D",
    "class": "CLAIM",
    "label": "Claimed: Bopal-Ghuma-Shela worst hit, water about 3 ft deep for about 3 days",
    "source": "DeshGujarat 25 Jul 2026 (AMC); Counterview 5 Aug 2026 (opinion column)",
    "geom_precision": "hull of OSM locality points, buffered 700 m; the claim names places, not an outline"
   }
  },
  {
   "type": "Feature",
   "geometry": {
    "type": "Point",
    "coordinates": [
     72.46761862887894,
     23.03511121270079
    ]
   },
   "properties": {
    "ann_id": "e1-04",
    "exhibit": "EX-1",
    "panel": "D",
    "class": "INFERRED",
    "label": "Built-up ground here brightened 0.4-1.0 dB more than at Thaltej, Bodakdev and Gota",
    "evidence": "median built-up change within 1.5 km (sar_e1_places.csv). Water at wall bases (double bounce) or building type; experimental."
   }
  }
 ]
}